1 04047U 69062A   21352.91256233  .00000033  00000-0  30097-4 0  9991
2 04047  98.6490 216.5383 0045216  39.2300 321.2144 14.28718909726917
1  4047U 69062A   21353.54285345  .00000035  00000-0  31223-4 0  9991
2  4047  98.6489 217.1634 0045188  37.4115 323.0197 14.28719009727431
1 04047U 69062A   21353.89301514  .00000041  00000-0  33555-4 0  9993
2 04047  98.6489 217.5106 0045178  36.4062 324.0178 14.28719091727057
1 04047U 69062A   21354.59333836  .00000044  00000-0  34702-4 0  9991
2 04047  98.6488 218.2051 0045142  34.3817 326.0271 14.28719243727155
1  4047U 69062A   21354.59333836  .00000044  00000-0  34702-4 0  9991
2  4047  98.6488 218.2051 0045142  34.3817 326.0271 14.28719243727582
1 04047U 69062A   21355.57379069  .00000042  00000-0  33764-4 0  9993
2 04047  98.6487 219.1774 0045099  31.5553 328.8319 14.28719402727298
1  4047U 69062A   21356.13404906  .00000041  00000-0  33415-4 0  9997
2  4047  98.6487 219.7330 0045074  29.9421 330.4324 14.28719500727801
1 04047U 69062A   21356.55424276  .00000050  00000-0  37140-4 0  9994
2 04047  98.6486 220.1497 0045054  28.7239 331.6410 14.28719614727436
1 04047U 69062A   21356.62427503  .00000051  00000-0  37428-4 0  9998
2 04047  98.6486 220.2191 0045049  28.5203 331.8430 14.28719638727442
1  4047U 69062A   21357.18453323  .00000052  00000-0  37652-4 0  9999
2  4047  98.6486 220.7747 0045023  26.9039 333.4463 14.28719747727956
1 04047U 69062A   21357.60472682  .00000052  00000-0  37677-4 0  9992
2 04047  98.6485 221.1914 0045000  25.6825 334.6578 14.28719830727582
1  4047U 69062A   21358.23501713  .00000050  00000-0  37054-4 0  9997
2  4047  98.6485 221.8164 0044970  23.8642 336.4611 14.28719955728103
1 04047U 69062A   21358.58517837  .00000048  00000-0  36181-4 0  9996
2 04047  98.6485 222.1637 0044950  22.8476 337.4692 14.28720020727726
1 04047U 69062A   21358.86530731  .00000047  00000-0  35937-4 0  9992
2 04047  98.6485 222.4415 0044930  22.0388 338.2713 14.28720073727760
1 04047U 69062A   21359.56562967  .00000045  00000-0  34898-4 0  9999
2 04047  98.6484 223.1360 0044893  20.0082 340.2847 14.28720209727866
1 04047U 69062A   21359.63566186  .00000046  00000-0  35496-4 0  9990
2 04047  98.6484 223.2054 0044888  19.8000 340.4911 14.28720242727879
1  4047U 69062A   21360.19591967  .00000040  00000-0  33198-4 0  9999
2  4047  98.6484 223.7610 0044860  18.1777 342.0996 14.28720315728384
1 04047U 69062A   21360.61611301  .00000040  00000-0  33163-4 0  9993
2 04047  98.6483 224.1777 0044840  16.9565 343.3103 14.28720384728011
1  4047U 69062A   21361.38646735  .00000043  00000-0  34350-4 0  9999
2  4047  98.6483 224.9416 0044800  14.7235 345.5239 14.28720532728553
1 04047U 69062A   21361.59656397  .00000042  00000-0  34052-4 0  9995
2 04047  98.6483 225.1499 0044791  14.1105 346.1316 14.28720579728156
1 04047U 69062A   21362.57701478  .00000043  00000-0  34175-4 0  9992
2 04047  98.6482 226.1221 0044744  11.2643 348.9530 14.28720755728291
1  4047U 69062A   21362.57701478  .00000043  00000-0  34175-4 0  9992
2  4047  98.6482 226.1221 0044744  11.2643 348.9530 14.28720755728729
1 04047U 69062A   21363.55746542  .00000044  00000-0  34595-4 0  9999
2 04047  98.6481 227.0944 0044695   8.4147 351.7774 14.28720920728436
1 04047U 69062A   21363.62749758  .00000045  00000-0  34909-4 0  9999
2 04047  98.6482 227.1638 0044689   8.2082 351.9821 14.28720943728448
1  4047U 69062A   21363.62749758  .00000045  00000-0  34909-4 0  9999
2  4047  98.6482 227.1638 0044689   8.2082 351.9821 14.28720943728875
1 04047U 69062A   21364.60794806  .00000042  00000-0  33919-4 0  9999
2 04047  98.6481 228.1360 0044630   5.3553 354.8097 14.28721086728588
1  4047U 69062A   21365.16820541  .00000041  00000-0  33316-4 0  9997
2  4047  98.6481 228.6916 0044603   3.7237 356.4268 14.28721187729098
1 04047U 69062A   21365.58839840  .00000040  00000-0  33033-4 0  9990
2 04047  98.6480 229.1083 0044583   2.4944 357.6452 14.28721252728726
1 04047U 69062A   21365.86852705  .00000037  00000-0  31782-4 0  9991
2 04047  98.6480 229.3860 0044566   1.6774 358.4549 14.28721277728761
1 04047U 69062A   22001.49881649  .00000037  00000-0  31903-4 0  9992
2 04047  98.6480 230.0110 0044533 359.8300   0.2859 14.28721380728856
1  4047U 69062A   22001.49881649  .00000037  00000-0  31903-4 0  9992
2  4047  98.6480 230.0110 0044533 359.8300   0.2859 14.28721380729284
1 04047U 69062A   22002.61933091  .00000031  00000-0  29524-4 0  9996
2 04047  98.6479 231.1221 0044468 356.5436   3.5432 14.28721530729019
1  4047U 69062A   22002.61933091  .00000031  00000-0  29524-4 0  9996
2  4047  98.6479 231.1221 0044468 356.5436   3.5432 14.28721530729446
1 04047U 69062A   22003.10955594  .00000032  00000-0  29862-4 0  9999
2 04047  98.6479 231.6082 0044439 355.1136   4.9606 14.28721626729080
1  4047U 69062A   22004.23007023  .00000025  00000-0  27120-4 0  9996
2  4047  98.6479 232.7193 0044368 351.8301   8.2153 14.28721767729678
1 04047U 69062A   22004.58023093  .00000022  00000-0  26253-4 0  9992
2 04047  98.6479 233.0665 0044350 350.8002   9.2363 14.28721813729298
1 04047U 69062A   22005.56068084  .00000018  00000-0  24395-4 0  9990
2 04047  98.6478 234.0387 0044285 347.9196  12.0919 14.28721940729433
1 04047U 69062A   22005.63071298  .00000017  00000-0  24236-4 0  9992
2 04047  98.6478 234.1081 0044282 347.7145  12.2953 14.28721952729448
1  4047U 69062A   22005.63071298  .00000017  00000-0  24236-4 0  9992
2  4047  98.6478 234.1081 0044282 347.7145  12.2953 14.28721952729875
1 04047U 69062A   22006.54113076  .00000012  00000-0  21992-4 0  9995
2 04047  98.6477 235.0109 0044240 345.0447  14.9424 14.28722046729579
1 04047U 69062A   22006.61116290  .00000011  00000-0  21770-4 0  9997
2 04047  98.6477 235.0804 0044238 344.8379  15.1474 14.28722059729582
1  4047U 69062A   22007.10138785  .00000006  00000-0  19796-4 0  9994
2  4047  98.6477 235.5665 0044215 343.3944  16.5787 14.28722114730080
1 04047U 69062A   22007.59161282  .00000004  00000-0  19149-4 0  9995
2 04047  98.6476 236.0526 0044189 341.9488  18.0123 14.28722157729725
1 04047U 69062A   22007.87174135  .00000002  00000-0  18219-4 0  9992
2 04047  98.6476 236.3303 0044171 341.1257  18.8286 14.28722182729768
1  4047U 69062A   22008.22190204  .00000005  00000-0  19272-4 0  9990
2  4047  98.6475 236.6776 0044152 340.0929  19.8528 14.28722248730245
1 04047U 69062A   22008.57206272  .00000006  00000-0  19856-4 0  9990
2 04047  98.6475 237.0248 0044135 339.0553  20.8819 14.28722297729861
1 04047U 69062A   22008.64209486  .00000007  00000-0  20141-4 0  9998
2 04047  98.6475 237.0942 0044130 338.8482  21.0874 14.28722313729879
1  4047U 69062A   22009.48248055  .00000004  00000-0  18946-4 0  9993
2  4047  98.6474 237.9275 0044090 336.3635  23.5520 14.28722366730420
1 04047U 69062A   22009.55251271  .00000001  00000-0  17967-4 0  9994
2 04047  98.6474 237.9969 0044087 336.1545  23.7594 14.28722359730003
1 04047U 69062A   22009.90267342  .00000000  00000-0  17473-4 0  9990
2 04047  98.6474 238.3441 0044067 335.1206  24.7851 14.28722381730051
1 04047U 69062A   22010.60299485  .00000003  00000-0  18589-4 0  9994
2 04047  98.6474 239.0385 0044031 333.0446  26.8449 14.28722470730156
1  4047U 69062A   22010.60299485  .00000003  00000-0  18589-4 0  9994
2  4047  98.6474 239.0385 0044031 333.0446  26.8449 14.28722470730583
1 04047U 69062A   22010.88312346  .00000001  00000-0  17789-4 0  9995
2 04047  98.6474 239.3163 0044016 332.2203  27.6628 14.28722477730197
1 04047U 69062A   22011.37334850  .00000004  00000-0  19151-4 0  9992
2 04047  98.6473 239.8024 0043991 330.7685  29.1036 14.28722539730262
1  4047U 69062A   22012.14370214  .00000009  00000-0  20913-4 0  9995
2  4047  98.6473 240.5662 0043952 328.4868  31.3682 14.28722663730803
1 04047U 69062A   22012.56389508  .00000008  00000-0  20764-4 0  9990
2 04047  98.6472 240.9828 0043935 327.2399  32.6060 14.28722682730431
1 04047U 69062A   22013.54434527  .00000015  00000-0  23523-4 0  9995
2 04047  98.6472 241.9549 0043889 324.3360  35.4891 14.28722808730574
1  4047U 69062A   22013.54434527  .00000015  00000-0  23523-4 0  9995
2  4047  98.6472 241.9549 0043889 324.3360  35.4891 14.28722808731003
1 04047U 69062A   22013.61437743  .00000016  00000-0  23636-4 0  9992
2 04047  98.6472 242.0244 0043886 324.1275  35.6962 14.28722821730585
1 04047U 69062A   22014.59482772  .00000028  00000-0  28458-4 0  9992
2 04047  98.6472 242.9964 0043840 321.2278  38.5760 14.28722991730726
1  4047U 69062A   22014.59482772  .00000028  00000-0  28458-4 0  9992
2  4047  98.6472 242.9964 0043840 321.2278  38.5760 14.28722991731154
1 04047U 69062A   22015.57527804  .00000035  00000-0  31320-4 0  9997
2 04047  98.6471 243.9685 0043799 318.3117  41.4729 14.28723152730861
1  4047U 69062A   22016.13553537  .00000037  00000-0  32168-4 0  9995
2  4047  98.6471 244.5240 0043771 316.6530  43.1211 14.28723253731379
1 04047U 69062A   22016.55572837  .00000044  00000-0  34922-4 0  9993
2 04047  98.6470 244.9406 0043757 315.4002  44.3662 14.28723341731002
1 04047U 69062A   22016.90588919  .00000050  00000-0  36998-4 0  9992
2 04047  98.6470 245.2878 0043740 314.3585  45.4015 14.28723423731055
1  4047U 69062A   22017.39611439  .00000046  00000-0  35506-4 0  9999
2  4047  98.6469 245.7739 0043718 312.8900  46.8614 14.28723474731554
1 04047U 69062A   22017.60621092  .00000044  00000-0  34954-4 0  9993
2 04047  98.6469 245.9822 0043712 312.2622  47.4856 14.28723512731152
1 04047U 69062A   22017.88633963  .00000047  00000-0  36023-4 0  9995
2 04047  98.6469 246.2599 0043699 311.4322  48.3109 14.28723567731194
1 04047U 69062A   22018.58666137  .00000042  00000-0  34207-4 0  9999
2 04047  98.6468 246.9542 0043677 309.3392  50.3922 14.28723686731296
1  4047U 69062A   22018.58666137  .00000042  00000-0  34207-4 0  9999
2  4047  98.6468 246.9542 0043677 309.3392  50.3922 14.28723686731724
1 04047U 69062A   22018.86679009  .00000046  00000-0  35703-4 0  9998
2 04047  98.6468 247.2320 0043663 308.5037  51.2233 14.28723751731339
